NORAD_CAT_ID,OBJECT_NAME,OBJECT_TYPE,EPOCH,MEAN_MOTION,ECCENTRICITY,INCLINATION,RA_OF_ASC_NODE,ARG_OF_PERICENTER,MEAN_ANOMALY,BSTAR,MEAN_MOTION_DOT,MEAN_MOTION_DDOT,TLE_LINE0,TLE_LINE1,TLE_LINE2,SEMIMAJOR_AXIS,PERIOD,APOGEE,PERIGEE,DECAYED
50197.0,STARLINK-3267,PAYLOAD,2022-08-02 19:51:07,15.08840858,0.0001662,53.2195,21.7685,66.2694,293.8472,1.2716e-05,-8.6e-07,0.0,0 STARLINK-3267,1 50197U 21125AT  22214.82717285 -.00000086  00000-0  12716-4 0  9990,2 50197  53.2195  21.7685 0001662  66.2694 293.8472 15.08840858 38289,6917.878000000002,95.438,540.893,538.5930000000002,0.0
50197.0,STARLINK-3267,PAYLOAD,2022-08-03 03:48:03,15.08843421,0.0001658,53.2195,20.2816,65.4759,294.6406,2.2559e-05,7.1e-07,0.0,0 STARLINK-3267,1 50197U 21125AT  22215.15837045  .00000071  00000-0  22559-4 0  9993,2 50197  53.2195  20.2816 0001658  65.4759 294.6406 15.08843421 37809,6917.87,95.437,540.882,538.5880000000002,0.0
50197.0,STARLINK-3267,PAYLOAD,2022-08-03 11:44:58,15.08839279,0.0001603,53.2194,18.7949,65.9757,294.1403,0.00011357,1.52e-05,0.0,0 STARLINK-3267,1 50197U 21125AT  22215.48956931  .00001520  00000-0  11357-3 0  9998,2 50197  53.2194  18.7949 0001603  65.9757 294.1403 15.08839279 38382,6917.8830000000025,95.438,540.857,538.639,0.0
50197.0,STARLINK-3267,PAYLOAD,2022-08-03 19:41:54,15.0883389,0.0001579,53.2195,17.3082,65.4173,294.6983,5.9376e-05,6.57e-06,0.0,0 STARLINK-3267,1 50197U 21125AT  22215.82077502  .00000657  00000-0  59376-4 0  9998,2 50197  53.2195  17.3082 0001579  65.4173 294.6983 15.08833890 37903,6917.899,95.438,540.856,538.672,0.0
50197.0,STARLINK-3267,PAYLOAD,2022-08-03 21:17:18,15.08833686,0.0001583,53.2195,17.0109,65.3702,294.7455,5.6194e-05,6.06e-06,0.0,0 STARLINK-3267,1 50197U 21125AT  22215.88701550  .00000606  00000-0  56194-4 0  9990,2 50197  53.2195  17.0109 0001583  65.3702 294.7455 15.08833686 38440,6917.9,95.438,540.86,538.67,0.0
50197.0,STARLINK-3267,PAYLOAD,2022-08-04 19:32:42,15.0883929,0.0001450999999999,53.2193,12.8481,60.3957,299.7179,2.8919e-05,1.72e-06,0.0,0 STARLINK-3267,1 50197U 21125AT  22216.81437572  .00000172  00000-0  28919-4 0  9996,2 50197  53.2193  12.8481 0001451  60.3957 299.7179 15.08839290 38585,6917.8830000000025,95.438,540.751,538.744,0.0
50197.0,STARLINK-3267,PAYLOAD,2022-08-05 19:23:28,15.08826314,0.0001929,53.2198,8.3879,80.2529,279.8681,0.0004013,6.102e-05,0.0,0 STARLINK-3267,1 50197U 21125AT  22217.80797443  .00006102  00000-0  40130-3 0  9999,2 50197  53.2198   8.3879 0001929  80.2529 279.8681 15.08826314 38206,6917.922,95.438,541.122,538.453,0.0
50197.0,STARLINK-3267,PAYLOAD,2022-08-06 12:52:43,15.08840595,0.0001406999999999,53.2207,5.1155,80.2222,279.8929,5.8054e-05,6.36e-06,0.0,0 STARLINK-3267,1 50197U 21125AT  22218.53661228  .00000636  00000-0  58054-4 0  9992,2 50197  53.2207   5.1155 0001407  80.2222 279.8929 15.08840595 38842,6917.879,95.438,540.717,538.77,0.0
50197.0,STARLINK-3267,PAYLOAD,2022-08-06 19:14:16,15.08837971,0.0001565999999999,53.2203,3.928,72.2031,287.9132,4.487100000000001e-05,4.26e-06,0.0,0 STARLINK-3267,1 50197U 21125AT  22218.80157626  .00000426  00000-0  44871-4 0  9993,2 50197  53.2203   3.9280 0001566  72.2031 287.9132 15.08837971 38882,6917.887,95.438,540.835,538.668,0.0
50197.0,STARLINK-3267,PAYLOAD,2022-08-07 03:11:11,15.08831161,0.0001558,53.22,2.4408,68.1228,291.993,0.0002313,3.394e-05,0.0,0 STARLINK-3267,1 50197U 21125AT  22219.13277550  .00003394  00000-0  23130-3 0  9990,2 50197  53.2200   2.4408 0001558  68.1228 291.9930 15.08831161 38402,6917.906999999997,95.438,540.85,538.695,0.0
50197.0,STARLINK-3267,PAYLOAD,2022-08-07 12:43:29,15.08851955,0.000143,53.2198,0.6566,65.3197,294.7944,5.249600000000002e-05,5.48e-06,0.0,0 STARLINK-3267,1 50197U 21125AT  22219.53020561  .00000548  00000-0  52496-4 0  9998,2 50197  53.2198   0.6566 0001430  65.3197 294.7944 15.08851955 38999,6917.844,95.437,540.698,538.72,0.0
50197.0,STARLINK-3267,PAYLOAD,2022-08-07 20:40:26,15.08841746,0.0001496999999999,53.2199,359.17,67.3517,292.7633,-2.6638e-05,-7.12e-06,0.0,0 STARLINK-3267,1 50197U 21125AT  22219.86141413 -.00000712  00000-0 -26638-4 0  9998,2 50197  53.2199 359.1700 0001497  67.3517 292.7633 15.08841746 39040,6917.875,95.437,540.776,538.7040000000002,0.0
50197.0,STARLINK-3267,PAYLOAD,2022-08-08 12:34:16,15.08847042,0.0001433,53.2199,356.1965,63.7016,296.4123,0.00012246,1.662e-05,0.0,0 STARLINK-3267,1 50197U 21125AT  22220.52380523  .00001662  00000-0  12246-3 0  9992,2 50197  53.2199 356.1965 0001433  63.7016 296.4123 15.08847042 38616,6917.859,95.437,540.715,538.7330000000002,0.0
50197.0,STARLINK-3267,PAYLOAD,2022-08-08 17:20:25,15.08855774,0.0001458,53.2198,355.3043,65.2786,294.8358,0.00021149,3.081e-05,0.0,0 STARLINK-3267,1 50197U 21125AT  22220.72251897  .00003081  00000-0  21149-3 0  9994,2 50197  53.2198 355.3043 0001458  65.2786 294.8358 15.08855774 38647,6917.831999999999,95.437,540.706,538.689,0.0
50197.0,STARLINK-3267,PAYLOAD,2022-08-09 10:49:40,15.08848023,0.0001551,53.2202,352.0365,56.5419,303.5721,1.1927e-05,-9.8e-07,0.0,0 STARLINK-3267,1 50197U 21125AT  22221.45116703 -.00000098  00000-0  11927-4 0  9991,2 50197  53.2202 352.0365 0001551  56.5419 303.5721 15.08848023 39286,6917.856,95.437,540.794,538.648,0.0
50197.0,STARLINK-3267,PAYLOAD,2022-08-09 18:46:36,15.08841788,0.0001344,53.2192,350.5467,62.9243,297.1886,-3.9707e-05,-9.2e-06,0.0,0 STARLINK-3267,1 50197U 21125AT  22221.78236763 -.00000920  00000-0 -39707-4 0  9997,2 50197  53.2192 350.5467 0001344  62.9243 297.1886 15.08841788 39333,6917.875,95.437,540.67,538.81,0.0
50197.0,STARLINK-3267,PAYLOAD,2022-08-10 01:08:09,15.08839399,0.0001708,53.2202,349.3568,73.6117,286.5063,-0.00025114,-4.283e-05,0.0,0 STARLINK-3267,1 50197U 21125AT  22222.04732878 -.00004283  00000-0 -25114-3 0  9997,2 50197  53.2202 349.3568 0001708  73.6117 286.5063 15.08839399 38845,6917.882,95.438,540.929,538.566,0.0
50197.0,STARLINK-3267,PAYLOAD,2022-08-10 12:15:49,15.088742600000002,0.0001314,53.2191,347.2732,81.9377,278.1764,0.00048271,7.41e-05,0.0,0 STARLINK-3267,1 50197U 21125AT  22222.51099318  .00007410  00000-0  48271-3 0  9996,2 50197  53.2191 347.2732 0001314  81.9377 278.1764 15.08874260 39443,6917.776,95.435,540.55,538.732,0.0
50197.0,STARLINK-3267,PAYLOAD,2022-08-10 20:12:46,15.08839915,0.0001445,53.219,345.7889,62.6661,297.4478,-3.2141e-05,-7.99e-06,0.0,0 STARLINK-3267,1 50197U 21125AT  22222.84221060 -.00000799  00000-0 -32141-4 0  9998,2 50197  53.2190 345.7889 0001445  62.6661 297.4478 15.08839915 39494,6917.880999999999,95.438,540.745,538.746,0.0
50197.0,STARLINK-3267,PAYLOAD,2022-08-11 13:42:02,15.08828741,0.0001443999999999,53.2196,342.5182,60.0845,300.029,5.7327e-05,6.24e-06,0.0,0 STARLINK-3267,1 50197U 21125AT  22223.57086164  .00000624  00000-0  57327-4 0  9991,2 50197  53.2196 342.5182 0001444  60.0845 300.0290 15.08828741 39607,6917.915,95.438,540.779,538.781,0.0
50197.0,STARLINK-3267,PAYLOAD,2022-08-11 18:28:11,15.08829338,0.0001460999999999,53.2196,341.6261,61.9998,298.1142,5.3783e-05,5.68e-06,0.0,0 STARLINK-3267,1 50197U 21125AT  22223.76958250  .00000568  00000-0  53783-4 0  9995,2 50197  53.2196 341.6261 0001461  61.9998 298.1142 15.08829338 39104,6917.913000000001,95.438,540.789,538.7669999999998,0.0
50197.0,STARLINK-3267,PAYLOAD,2022-08-12 13:32:49,15.08843149,0.0001515,53.219,338.0578,62.4828,297.6318,0.00020861,3.034e-05,0.0,0 STARLINK-3267,1 50197U 21125AT  22224.56445780  .00003034  00000-0  20861-3 0  9994,2 50197  53.2190 338.0578 0001515  62.4828 297.6318 15.08843149 39225,6917.871,95.437,540.784,538.688,0.0
50197.0,STARLINK-3267,PAYLOAD,2022-08-12 18:18:58,15.08847687,0.0001528,53.219,337.1658,62.5138,297.601,0.00026762,3.975e-05,0.0,0 STARLINK-3267,1 50197U 21125AT  22224.76317596  .00003975  00000-0  26762-3 0  9999,2 50197  53.2190 337.1658 0001528  62.5138 297.6010 15.08847687 39784,6917.857,95.437,540.779,538.665,0.0
50197.0,STARLINK-3267,PAYLOAD,2022-08-13 13:23:36,15.08842896,0.0001543,53.2189,333.598,66.0722,294.0432,0.00015229,2.137e-05,0.0,0 STARLINK-3267,1 50197U 21125AT  22225.55805781  .00002137  00000-0  15229-3 0  9990,2 50197  53.2189 333.5980 0001543  66.0722 294.0432 15.08842896 39905,6917.871999999999,95.437,540.804,538.669,0.0
50197.0,STARLINK-3267,PAYLOAD,2022-08-13 19:45:09,15.08829908,0.0001530999999999,53.2195,332.4083,63.2402,296.8746,6.0884e-05,6.81e-06,0.0,0 STARLINK-3267,1 50197U 21125AT  22225.82302897  .00000681  00000-0  60884-4 0  9990,2 50197  53.2195 332.4083 0001531  63.2402 296.8746 15.08829908 39946,6917.911,95.438,540.835,538.717,0.0
50197.0,STARLINK-3267,PAYLOAD,2022-08-14 11:39:00,15.0884044,0.0001574,53.2189,329.4353,63.9852,296.1302,7.3136e-05,8.76e-06,0.0,0 STARLINK-3267,1 50197U 21125AT  22226.48542280  .00000876  00000-0  73136-4 0  9995,2 50197  53.2189 329.4353 0001574  63.9852 296.1302 15.08840440 40046,6917.879,95.438,540.8330000000002,538.655,0.0
50197.0,STARLINK-3267,PAYLOAD,2022-08-14 18:00:32,15.08845045,0.0001571999999999,53.2185,328.2459,62.1758,297.9394,0.00020312,2.947e-05,0.0,0 STARLINK-3267,1 50197U 21125AT  22226.75038097  .00002947  00000-0  20312-3 0  9999,2 50197  53.2185 328.2459 0001572  62.1758 297.9394 15.08845045 40080,6917.865,95.437,540.817,538.6419999999998,0.0
50197.0,STARLINK-3267,PAYLOAD,2022-08-15 09:54:24,15.08839099,0.000155,53.2184,325.2726,62.6517,297.4633,0.00016322,2.311e-05,0.0,0 STARLINK-3267,1 50197U 21125AT  22227.41278578  .00002311  00000-0  16322-3 0  9994,2 50197  53.2184 325.2726 0001550  62.6517 297.4633 15.08839099 40181,6917.8830000000025,95.438,540.82,538.6759999999998,0.0
50197.0,STARLINK-3267,PAYLOAD,2022-08-15 17:51:20,15.08840526,0.0001564999999999,53.2182,323.7857,61.1271,298.9878,0.00019422,2.804e-05,0.0,0 STARLINK-3267,1 50197U 21125AT  22227.74398642  .00002804  00000-0  19422-3 0  9996,2 50197  53.2182 323.7857 0001565  61.1271 298.9878 15.08840526 39704,6917.879,95.438,540.826,538.661,0.0
